{"type":"FeatureCollection","features":[{"type":"Feature","properties":{"name":"Alfonso","fold":"alfonso"},"geometry":{"type":"Polygon","coordinates":[[[120.885853,14.104617],[120.886936,14.105072],[120.885143,14.108953],[120.888181,14.110091],[120.882129,14.120466],[120.875698,14.124641],[120.872035,14.133171],[120.864245,14.14173],[120.86289,14.146712],[120.854447,14.155006],[120.851223,14.165757],[120.844835,14.169639],[120.84264,14.169032],[120.832688,14.179013],[120.833235,14.182502],[120.830646,14.18686],[120.831007,14.190002],[120.829537,14.190652],[120.830241,14.192884],[120.827628,14.195767],[120.818017,14.190757],[120.818684,14.186691],[120.82155,14.183532],[120.823308,14.177138],[120.827304,14.174321],[120.828433,14.169549],[120.834129,14.163381],[120.838517,14.152671],[120.839176,14.146992],[120.798377,14.126583],[120.794611,14.128684],[120.793385,14.131414],[120.788032,14.133008],[120.780447,14.138677],[120.782501,14.133779],[120.784601,14.133301],[120.786901,14.128933],[120.790566,14.126291],[120.78576,14.122626],[120.781323,14.125664],[120.779385,14.129178],[120.777011,14.129825],[120.77639,14.128484],[120.781144,14.120732],[120.781437,14.116633],[120.78659,14.111096],[120.791116,14.099178],[120.792994,14.09741],[120.803587,14.10484],[120.808331,14.104697],[120.809274,14.103494],[120.81738,14.102366],[120.830419,14.092715],[120.839171,14.088879],[120.841882,14.085674],[120.840441,14.083297],[120.841015,14.081515],[120.844779,14.07698],[120.843443,14.070567],[120.84513,14.067919],[120.843913,14.059365],[120.847054,14.056882],[120.848309,14.064432],[120.857378,14.069348],[120.862501,14.075535],[120.869061,14.077399],[120.877933,14.083808],[120.889428,14.085844],[120.893679,14.08803],[120.89266,14.08889],[120.893538,14.091896],[120.891749,14.093407],[120.892619,14.095921],[120.884185,14.1037],[120.885853,14.104617]]]}},{"type":"Feature","properties":{"name":"Amadeo","fold":"amadeo"},"geometry":{"type":"Polygon","coordinates":[[[120.944676,14.129148],[120.945723,14.131832],[120.938906,14.131709],[120.94044,14.12746],[120.928663,14.123866],[120.929298,14.126122],[120.925883,14.134206],[120.927281,14.13692],[120.925601,14.145804],[120.923024,14.150353],[120.925391,14.158027],[120.911164,14.177981],[120.909492,14.182788],[120.911437,14.186503],[120.91045,14.191415],[120.90485,14.196327],[120.900345,14.206974],[120.897653,14.207811],[120.896655,14.218169],[120.901474,14.220433],[120.930515,14.226987],[120.934031,14.219624],[120.936806,14.216857],[120.936718,14.199582],[120.939724,14.193105],[120.941032,14.184025],[120.948362,14.178718],[120.950756,14.174978],[120.94987,14.159156],[120.950647,14.15504],[120.952872,14.15288],[120.954939,14.143159],[120.955142,14.132765],[120.944676,14.129148]]]}},{"type":"Feature","properties":{"name":"Bacoor City","fold":"bacoor"},"geometry":{"type":"Polygon","coordinates":[[[120.97014,14.475608],[120.943353,14.493914],[120.922841,14.476378],[120.921056,14.467904],[120.924384,14.46512],[120.92431,14.45924],[120.928177,14.456793],[120.927173,14.448455],[120.931067,14.446021],[120.930996,14.442358],[120.933351,14.442537],[120.936069,14.43833],[120.936038,14.436019],[120.939612,14.431576],[120.948406,14.433168],[120.946822,14.424724],[120.947497,14.421667],[120.949841,14.420477],[120.952188,14.416582],[120.955544,14.415694],[120.955488,14.413005],[120.959046,14.410345],[120.959916,14.40406],[120.96484,14.40343],[120.972268,14.392308],[120.972769,14.388634],[120.975132,14.387775],[120.974742,14.386856],[120.969016,14.388091],[120.970109,14.382982],[120.974119,14.377317],[120.97359,14.373332],[120.975632,14.371517],[120.973382,14.371445],[120.973139,14.369556],[120.981665,14.366563],[120.981659,14.362616],[121.006818,14.362648],[121.007157,14.370036],[121.010262,14.373067],[121.011566,14.380309],[121.009685,14.38078],[121.007725,14.38391],[121.006578,14.387481],[121.00789,14.390569],[121.001928,14.393992],[121.002954,14.397365],[121.002121,14.399224],[120.99832,14.405382],[120.995279,14.405685],[120.994874,14.411055],[120.990381,14.416127],[120.989983,14.421839],[120.986851,14.42267],[120.987128,14.426311],[120.985705,14.426046],[120.984266,14.429433],[120.984083,14.433518],[120.97926,14.435047],[120.973923,14.439281],[120.969903,14.446715],[120.970428,14.454815],[120.965999,14.46535],[120.969548,14.468228],[120.967682,14.469853],[120.968288,14.471532],[120.97156,14.471547],[120.97014,14.475608]]]}},{"type":"Feature","properties":{"name":"Carmona City","fold":"carmona"},"geometry":{"type":"Polygon","coordinates":[[[121.056578,14.324267],[121.059394,14.322224],[121.060942,14.322652],[121.063149,14.325913],[121.067962,14.329129],[121.077682,14.327868],[121.075634,14.325196],[121.070265,14.323428],[121.066393,14.31487],[121.066836,14.313212],[121.061918,14.311061],[121.063236,14.309869],[121.061847,14.308758],[121.062292,14.306753],[121.060067,14.30468],[121.058879,14.299883],[121.055606,14.297986],[121.054851,14.294944],[121.050721,14.295334],[121.048603,14.292898],[121.047401,14.287959],[121.04849,14.283595],[121.046068,14.2819],[121.044895,14.276427],[121.040354,14.27418],[121.038888,14.270989],[121.040888,14.262255],[121.039184,14.260312],[121.035497,14.260902],[121.021137,14.257145],[121.01651,14.262047],[121.013919,14.268785],[121.012498,14.268815],[121.01165,14.270706],[121.008923,14.270396],[121.009444,14.274712],[121.002581,14.28109],[121.00364,14.286158],[121.006505,14.287811],[121.014669,14.303739],[121.023164,14.310322],[121.033668,14.314794],[121.032075,14.318774],[121.030946,14.318589],[121.031073,14.321158],[121.037187,14.322469],[121.041763,14.326307],[121.047274,14.32812],[121.056578,14.324267]]]}},{"type":"Feature","properties":{"name":"Cavite City","fold":"cavite"},"geometry":{"type":"Polygon","coordinates":[[[120.511488,14.391554],[120.52247,14.400004],[120.540338,14.399481],[120.558809,14.407487],[120.591428,14.416632],[120.606847,14.424792],[120.636032,14.432828],[120.686868,14.441941],[120.71475,14.445266],[120.708336,14.403788],[120.686971,14.363296],[120.67669,14.346666],[120.588022,14.328091],[120.569992,14.317532],[120.45021,14.25962],[120.431908,14.272334],[120.416139,14.287551],[120.475926,14.364189],[120.511488,14.391554]]]}},{"type":"Feature","properties":{"name":"Dasmariñas City","fold":"dasmarinas"},"geometry":{"type":"Polygon","coordinates":[[[121.007925,14.335371],[121.008385,14.341119],[121.005468,14.346677],[121.006974,14.34975],[121.005158,14.350848],[121.007524,14.355132],[121.006818,14.362648],[120.948719,14.3627],[120.949113,14.361176],[120.938243,14.361679],[120.93003,14.358307],[120.930315,14.354663],[120.920489,14.354106],[120.922055,14.352456],[120.922296,14.345942],[120.92396,14.343052],[120.92293,14.333657],[120.928682,14.326774],[120.927066,14.32281],[120.927994,14.318837],[120.926459,14.317045],[120.926048,14.311628],[120.932958,14.302946],[120.929211,14.293899],[120.932488,14.281904],[120.931016,14.279058],[120.934937,14.275671],[120.93311,14.270568],[120.936457,14.264846],[120.937795,14.258159],[120.944643,14.248863],[120.94669,14.248201],[120.953806,14.254761],[120.956508,14.254597],[120.955756,14.256529],[120.962511,14.262645],[120.978547,14.260724],[120.992783,14.26084],[120.993459,14.264399],[120.995025,14.26527],[120.993218,14.268508],[120.994076,14.270078],[120.991426,14.273349],[120.990509,14.279166],[120.993722,14.286007],[120.994789,14.285643],[120.996737,14.289979],[120.999843,14.291892],[120.998518,14.29434],[121.000294,14.306927],[121.002365,14.306952],[121.002934,14.311579],[121.005635,14.313366],[121.010897,14.32153],[121.006614,14.326335],[121.007925,14.335371]]]}},{"type":"Feature","properties":{"name":"General Emilio Aguinaldo","fold":"general emilio aguinaldo"},"geometry":{"type":"Polygon","coordinates":[[[120.818017,14.190757],[120.815468,14.193366],[120.809414,14.208007],[120.80756,14.208599],[120.806164,14.211768],[120.803066,14.213016],[120.802204,14.216659],[120.798001,14.218175],[120.797947,14.220454],[120.793746,14.223305],[120.791099,14.223227],[120.789623,14.229259],[120.786317,14.23142],[120.782774,14.237992],[120.780126,14.230861],[120.781847,14.227758],[120.779551,14.225502],[120.779758,14.217633],[120.777143,14.215431],[120.774122,14.215568],[120.774434,14.209192],[120.771704,14.207225],[120.773726,14.20448],[120.773933,14.193485],[120.774878,14.191282],[120.776604,14.190903],[120.776358,14.187169],[120.778886,14.180889],[120.77877,14.172869],[120.779446,14.170897],[120.78248,14.17016],[120.78422,14.166244],[120.783999,14.16137],[120.785926,14.158023],[120.790464,14.154569],[120.79255,14.146907],[120.794955,14.146081],[120.798343,14.141865],[120.801842,14.141427],[120.802854,14.136824],[120.808985,14.131441],[120.839176,14.146992],[120.838517,14.152671],[120.834129,14.163381],[120.828433,14.169549],[120.827304,14.174321],[120.823308,14.177138],[120.818017,14.190757]]]}},{"type":"Feature","properties":{"name":"General Mariano Alvarez","fold":"general mariano alvarez"},"geometry":{"type":"Polygon","coordinates":[[[121.024815,14.328397],[121.032244,14.334467],[121.040721,14.332397],[121.038934,14.328944],[121.039267,14.323593],[121.030765,14.320602],[121.033668,14.314794],[121.023164,14.310322],[121.014444,14.30352],[121.006505,14.287811],[121.00364,14.286158],[121.003066,14.281936],[120.993567,14.285459],[120.995868,14.286771],[120.998008,14.291362],[120.999843,14.291892],[120.998518,14.29434],[120.998764,14.298759],[121.000057,14.29957],[120.999617,14.30521],[121.000427,14.30707],[121.002365,14.306952],[121.002934,14.311579],[121.005635,14.313366],[121.010348,14.321136],[121.015069,14.324134],[121.02188,14.325296],[121.024815,14.328397]]]}},{"type":"Feature","properties":{"name":"General Trias City","fold":"general trias"},"geometry":{"type":"Polygon","coordinates":[[[120.884412,14.417285],[120.886152,14.417232],[120.889699,14.411267],[120.896101,14.406952],[120.897751,14.402943],[120.901241,14.400819],[120.902622,14.395654],[120.905842,14.393391],[120.905536,14.386992],[120.909291,14.384237],[120.913777,14.376579],[120.912602,14.371233],[120.914719,14.369987],[120.915808,14.36009],[120.919167,14.359655],[120.920143,14.354564],[120.922055,14.352456],[120.922296,14.345942],[120.923974,14.34289],[120.92293,14.333657],[120.928658,14.32694],[120.926048,14.311628],[120.932958,14.302946],[120.929046,14.291788],[120.932488,14.281904],[120.931008,14.279193],[120.931725,14.27822],[120.925535,14.275418],[120.926911,14.271117],[120.925571,14.269756],[120.925962,14.256824],[120.921426,14.249233],[120.926013,14.239351],[120.927517,14.231551],[120.930515,14.226987],[120.903147,14.220187],[120.899635,14.222116],[120.89724,14.229003],[120.891302,14.235722],[120.889307,14.245975],[120.899755,14.247134],[120.898373,14.252677],[120.899706,14.255946],[120.896109,14.265648],[120.89595,14.269734],[120.901052,14.274487],[120.896613,14.284444],[120.896678,14.287078],[120.892212,14.290352],[120.895048,14.297883],[120.893747,14.302719],[120.89102,14.306009],[120.890582,14.311549],[120.882773,14.310405],[120.881311,14.311852],[120.879898,14.310849],[120.878405,14.31259],[120.874245,14.309735],[120.867855,14.310204],[120.865919,14.314603],[120.866574,14.320297],[120.86818,14.321625],[120.869208,14.327449],[120.871959,14.330892],[120.873792,14.336804],[120.873198,14.341231],[120.868632,14.349507],[120.871965,14.351471],[120.873587,14.36021],[120.872654,14.362323],[120.87448,14.362914],[120.875899,14.36933],[120.874204,14.372334],[120.875711,14.375358],[120.874441,14.377209],[120.875411,14.379531],[120.874519,14.383479],[120.865578,14.387952],[120.861803,14.392917],[120.861691,14.397363],[120.859842,14.400545],[120.864679,14.402038],[120.865118,14.400478],[120.867583,14.401006],[120.866826,14.404112],[120.869098,14.4051],[120.870555,14.404009],[120.872964,14.408616],[120.874189,14.406897],[120.875707,14.407054],[120.874508,14.414783],[120.877849,14.413805],[120.879221,14.417507],[120.884412,14.417285]]]}},{"type":"Feature","properties":{"name":"Imus City","fold":"imus"},"geometry":{"type":"Polygon","coordinates":[[[120.973557,14.378037],[120.970109,14.382982],[120.969016,14.388091],[120.974742,14.386856],[120.975132,14.387775],[120.972769,14.388634],[120.972268,14.392308],[120.96484,14.40343],[120.959916,14.40406],[120.959046,14.410345],[120.955488,14.413005],[120.955544,14.415694],[120.952188,14.416582],[120.949841,14.420477],[120.947451,14.421751],[120.948406,14.433168],[120.939612,14.431576],[120.936038,14.436019],[120.936069,14.43833],[120.933351,14.442537],[120.930231,14.441302],[120.928251,14.445834],[120.922442,14.446325],[120.911216,14.442702],[120.910937,14.438962],[120.915838,14.432197],[120.91511,14.418247],[120.920173,14.412717],[120.919989,14.410412],[120.90104,14.408165],[120.897165,14.414724],[120.892088,14.409687],[120.896101,14.406952],[120.897751,14.402943],[120.901241,14.400819],[120.902622,14.395654],[120.905798,14.39353],[120.905458,14.38716],[120.909291,14.384237],[120.913777,14.376579],[120.912602,14.371233],[120.914719,14.369987],[120.915775,14.360188],[120.919233,14.359572],[120.920349,14.354225],[120.930315,14.354663],[120.93003,14.358307],[120.938243,14.361679],[120.981659,14.362616],[120.981665,14.366563],[120.973139,14.369556],[120.973382,14.371445],[120.975632,14.371517],[120.97359,14.373332],[120.973557,14.378037]]]}},{"type":"Feature","properties":{"name":"Indang","fold":"indang"},"geometry":{"type":"Polygon","coordinates":[[[120.856447,14.244483],[120.842265,14.240143],[120.834252,14.235965],[120.827393,14.240779],[120.816904,14.233561],[120.82081,14.227969],[120.820301,14.222216],[120.824638,14.218481],[120.823444,14.21432],[120.827715,14.209951],[120.826114,14.208822],[120.825104,14.203162],[120.827883,14.198064],[120.827252,14.195725],[120.830241,14.192884],[120.829537,14.190652],[120.831007,14.190002],[120.830646,14.18686],[120.833235,14.182502],[120.832688,14.179013],[120.84264,14.169032],[120.844835,14.169639],[120.851223,14.165757],[120.854447,14.155006],[120.86289,14.146712],[120.866758,14.137713],[120.870405,14.135296],[120.881986,14.137541],[120.890915,14.141181],[120.894829,14.139835],[120.894035,14.142301],[120.908395,14.148285],[120.915179,14.138331],[120.919645,14.134954],[120.92221,14.123137],[120.923991,14.122077],[120.928663,14.123866],[120.929298,14.126122],[120.925883,14.134206],[120.927281,14.13692],[120.925601,14.145804],[120.923024,14.150353],[120.924889,14.15402],[120.924716,14.16001],[120.911164,14.177981],[120.909492,14.182788],[120.911437,14.186503],[120.91045,14.191415],[120.90485,14.196327],[120.900345,14.206974],[120.897653,14.207811],[120.896838,14.217774],[120.894778,14.220645],[120.893249,14.22715],[120.889443,14.227679],[120.883062,14.235917],[120.883607,14.239193],[120.880864,14.243747],[120.871917,14.244147],[120.870143,14.241577],[120.864052,14.239865],[120.861983,14.246112],[120.856447,14.244483]]]}},{"type":"Feature","properties":{"name":"Kawit","fold":"kawit"},"geometry":{"type":"Polygon","coordinates":[[[120.922841,14.476378],[120.910055,14.473955],[120.897949,14.466764],[120.889216,14.46002],[120.888386,14.457036],[120.885758,14.455265],[120.884483,14.450678],[120.885449,14.436265],[120.887335,14.433871],[120.886904,14.430129],[120.889635,14.423636],[120.887094,14.421696],[120.886307,14.418852],[120.887694,14.418552],[120.888882,14.415616],[120.887463,14.414914],[120.888344,14.412837],[120.892088,14.409687],[120.897165,14.414724],[120.90104,14.408165],[120.919989,14.410412],[120.920173,14.412717],[120.91511,14.418247],[120.915723,14.432868],[120.910937,14.438962],[120.910537,14.441544],[120.918461,14.445407],[120.923738,14.446365],[120.928251,14.445834],[120.929918,14.441562],[120.931883,14.441698],[120.931067,14.446021],[120.927218,14.448258],[120.928067,14.457072],[120.92431,14.45924],[120.924384,14.46512],[120.921056,14.467904],[120.922841,14.476378]]]}},{"type":"Feature","properties":{"name":"Magallanes","fold":"magallanes"},"geometry":{"type":"Polygon","coordinates":[[[120.780447,14.138677],[120.782501,14.133779],[120.784601,14.133301],[120.786901,14.128933],[120.790556,14.126452],[120.78576,14.122626],[120.781323,14.125664],[120.779385,14.129178],[120.775326,14.130658],[120.772047,14.133793],[120.769323,14.133061],[120.764886,14.135844],[120.759826,14.134834],[120.754376,14.137197],[120.751353,14.136269],[120.750285,14.137808],[120.7434,14.135691],[120.741115,14.133424],[120.739151,14.134679],[120.737501,14.133561],[120.736246,14.13648],[120.734443,14.136608],[120.734489,14.138472],[120.720164,14.141257],[120.713925,14.147778],[120.708018,14.146017],[120.708136,14.153843],[120.710663,14.15878],[120.703084,14.166846],[120.714526,14.171063],[120.715992,14.173111],[120.716627,14.17936],[120.719294,14.184002],[120.718205,14.185588],[120.724197,14.190134],[120.727208,14.19445],[120.735294,14.19706],[120.735895,14.198311],[120.740976,14.196492],[120.744337,14.19834],[120.748237,14.203067],[120.751573,14.203134],[120.754419,14.207825],[120.758775,14.208252],[120.762182,14.211063],[120.766039,14.210858],[120.766847,14.213171],[120.773575,14.214388],[120.774434,14.209192],[120.771704,14.207225],[120.773726,14.20448],[120.773933,14.193485],[120.774878,14.191282],[120.776604,14.190903],[120.776358,14.187169],[120.778886,14.180889],[120.779193,14.171191],[120.78248,14.17016],[120.78422,14.166244],[120.783999,14.16137],[120.785926,14.158023],[120.790464,14.154569],[120.79255,14.146907],[120.794955,14.146081],[120.798343,14.141865],[120.801842,14.141427],[120.802854,14.136824],[120.808985,14.131441],[120.797322,14.126688],[120.793385,14.131414],[120.788032,14.133008],[120.780447,14.138677]]]}},{"type":"Feature","properties":{"name":"Maragondon","fold":"maragondon"},"geometry":{"type":"Polygon","coordinates":[[[120.780451,14.23028],[120.783339,14.23791],[120.786317,14.23142],[120.789623,14.229259],[120.791099,14.223227],[120.793746,14.223305],[120.797947,14.220454],[120.798001,14.218175],[120.802204,14.216659],[120.803066,14.213016],[120.806164,14.211768],[120.80756,14.208599],[120.810585,14.206436],[120.81096,14.202595],[120.818017,14.190757],[120.827713,14.196288],[120.825104,14.203162],[120.826114,14.208822],[120.827715,14.209951],[120.823444,14.21432],[120.824638,14.218481],[120.820301,14.222216],[120.82053,14.228735],[120.814165,14.236773],[120.813415,14.239939],[120.810645,14.240821],[120.806555,14.249103],[120.802796,14.251887],[120.799281,14.250993],[120.796701,14.253609],[120.796304,14.258047],[120.797416,14.25935],[120.78906,14.26939],[120.780239,14.273096],[120.77847,14.272617],[120.777741,14.274252],[120.774648,14.274455],[120.773683,14.272106],[120.769288,14.273193],[120.780451,14.23028]]]}},{"type":"Feature","properties":{"name":"Mendez-Nuñez","fold":"mendez"},"geometry":{"type":"Polygon","coordinates":[[[120.881238,14.137561],[120.870476,14.134958],[120.875698,14.124641],[120.88076,14.122153],[120.888181,14.110091],[120.889197,14.111371],[120.923963,14.122218],[120.921007,14.125654],[120.919645,14.134954],[120.915179,14.138331],[120.908395,14.148285],[120.894035,14.142301],[120.894829,14.139835],[120.890915,14.141181],[120.881238,14.137561]]]}},{"type":"Feature","properties":{"name":"Naic","fold":"naic"},"geometry":{"type":"Polygon","coordinates":[[[120.856447,14.244483],[120.842265,14.240143],[120.834252,14.235965],[120.827393,14.240779],[120.816904,14.233561],[120.813415,14.239939],[120.810645,14.240821],[120.806387,14.249279],[120.802796,14.251887],[120.799281,14.250993],[120.796701,14.253609],[120.796304,14.258047],[120.797416,14.25935],[120.78906,14.26939],[120.780239,14.273096],[120.77847,14.272617],[120.777741,14.274252],[120.774648,14.274455],[120.773683,14.272106],[120.769288,14.273193],[120.756637,14.286369],[120.74713,14.293229],[120.73379,14.306331],[120.683423,14.335738],[120.67669,14.346666],[120.686971,14.363296],[120.708768,14.406031],[120.781698,14.346394],[120.788092,14.344612],[120.788308,14.346512],[120.792652,14.345152],[120.796395,14.346351],[120.802798,14.34214],[120.806501,14.337244],[120.811974,14.334234],[120.812958,14.329623],[120.817554,14.327769],[120.818555,14.324276],[120.820587,14.322693],[120.820417,14.320584],[120.823062,14.317601],[120.816616,14.301707],[120.814874,14.301982],[120.812537,14.299439],[120.812625,14.296508],[120.814906,14.294629],[120.814926,14.290014],[120.816268,14.290424],[120.816645,14.287167],[120.822933,14.28211],[120.825043,14.27709],[120.83032,14.274897],[120.838571,14.266937],[120.84719,14.263269],[120.847298,14.260161],[120.849018,14.260074],[120.849423,14.257902],[120.851945,14.256885],[120.852119,14.254689],[120.854404,14.254667],[120.854325,14.253308],[120.859958,14.249382],[120.861217,14.246428],[120.856447,14.244483]]]}},{"type":"Feature","properties":{"name":"Noveleta","fold":"noveleta"},"geometry":{"type":"Polygon","coordinates":[[[120.871055,14.431095],[120.854483,14.443809],[120.82204,14.474881],[120.879456,14.456915],[120.885606,14.453702],[120.884483,14.450678],[120.885449,14.436265],[120.887335,14.433871],[120.886904,14.430129],[120.889635,14.423636],[120.887094,14.421696],[120.886307,14.418852],[120.887694,14.418552],[120.888861,14.415551],[120.887463,14.414914],[120.884939,14.417856],[120.878599,14.417501],[120.8789,14.419083],[120.877227,14.419268],[120.87654,14.422263],[120.875174,14.421647],[120.872088,14.426464],[120.873846,14.429808],[120.872158,14.429583],[120.871055,14.431095]]]}},{"type":"Feature","properties":{"name":"Rosario","fold":"rosario"},"geometry":{"type":"Polygon","coordinates":[[[120.879221,14.417507],[120.877849,14.413805],[120.874508,14.414783],[120.875707,14.407054],[120.874189,14.406897],[120.872964,14.408616],[120.870555,14.404009],[120.869098,14.4051],[120.866826,14.404112],[120.867583,14.401006],[120.865118,14.400478],[120.864679,14.402038],[120.859842,14.400545],[120.857613,14.402512],[120.855373,14.401913],[120.853335,14.404883],[120.84787,14.406685],[120.844873,14.411028],[120.733112,14.469437],[120.750876,14.516094],[120.753824,14.518744],[120.82204,14.474881],[120.863223,14.436051],[120.872008,14.429667],[120.873846,14.429808],[120.872088,14.426464],[120.879221,14.417507]]]}},{"type":"Feature","properties":{"name":"Silang","fold":"silang"},"geometry":{"type":"Polygon","coordinates":[[[120.950922,14.170044],[120.951283,14.17331],[120.948556,14.178494],[120.94095,14.184184],[120.939724,14.193105],[120.936718,14.199582],[120.936927,14.216608],[120.928397,14.229624],[120.926013,14.239351],[120.921514,14.248323],[120.925962,14.256824],[120.925571,14.269756],[120.926911,14.271117],[120.92594,14.276409],[120.931725,14.27822],[120.934847,14.275912],[120.93311,14.270568],[120.936457,14.264846],[120.937795,14.258159],[120.944216,14.249265],[120.94669,14.248201],[120.953806,14.254761],[120.956508,14.254597],[120.955756,14.256529],[120.962511,14.262645],[120.978547,14.260724],[120.992783,14.26084],[120.993459,14.264399],[120.995025,14.26527],[120.990385,14.278516],[120.993567,14.285459],[121.00277,14.281718],[121.00646,14.276443],[121.009444,14.274712],[121.008923,14.270396],[121.01165,14.270706],[121.012498,14.268815],[121.013919,14.268785],[121.01651,14.262047],[121.021137,14.257145],[121.035497,14.260902],[121.039414,14.26049],[121.036162,14.254368],[121.03708,14.249451],[121.041529,14.249996],[121.046967,14.254365],[121.052545,14.254037],[121.053611,14.256029],[121.05443,14.256672],[121.05364,14.251989],[121.056095,14.24709],[121.05225,14.239634],[121.051301,14.234346],[121.046618,14.228372],[121.050308,14.216697],[121.047381,14.217273],[121.044617,14.215658],[121.044365,14.214072],[121.042079,14.214422],[121.037343,14.210639],[121.038708,14.209573],[121.038576,14.206708],[121.03481,14.204753],[121.032836,14.205283],[121.031323,14.202828],[121.0326,14.201892],[121.031205,14.201071],[121.031143,14.197551],[121.029682,14.196921],[121.02966,14.191866],[121.023409,14.18355],[121.023006,14.179844],[121.019026,14.176403],[121.017278,14.170477],[121.017888,14.16693],[121.011494,14.161843],[121.007521,14.160961],[121.006923,14.158048],[121.00131,14.154602],[121.000556,14.151434],[121.001801,14.148997],[121.00048,14.145998],[120.996826,14.147979],[120.994271,14.146616],[120.988386,14.148969],[120.984244,14.146926],[120.984306,14.142797],[120.975429,14.141615],[120.975341,14.139792],[120.969071,14.136786],[120.963667,14.135988],[120.963215,14.133627],[120.961685,14.133276],[120.961569,14.134875],[120.955142,14.132765],[120.954891,14.143614],[120.952872,14.15288],[120.950647,14.15504],[120.94987,14.159156],[120.950922,14.170044]]]}},{"type":"Feature","properties":{"name":"Tagaytay City","fold":"tagaytay"},"geometry":{"type":"Polygon","coordinates":[[[121.018552,14.166685],[121.01656,14.166523],[121.011494,14.161843],[121.007521,14.160961],[121.006923,14.158048],[121.00131,14.154602],[121.000556,14.151434],[121.001801,14.148997],[121.00048,14.145998],[120.996826,14.147979],[120.994271,14.146616],[120.988386,14.148969],[120.984244,14.146926],[120.984306,14.142797],[120.975429,14.141615],[120.975341,14.139792],[120.969071,14.136786],[120.963667,14.135988],[120.963215,14.133627],[120.961685,14.133276],[120.961569,14.134875],[120.954003,14.13298],[120.954211,14.132031],[120.945121,14.129092],[120.945723,14.131832],[120.938906,14.131709],[120.939818,14.127132],[120.889197,14.111371],[120.885143,14.108953],[120.886936,14.105072],[120.884185,14.1037],[120.892619,14.095921],[120.891749,14.093407],[120.893538,14.091896],[120.89271,14.088544],[120.89723,14.084249],[120.898803,14.07627],[120.901227,14.077812],[120.919738,14.080672],[120.922902,14.079561],[120.922267,14.081778],[120.925583,14.081851],[120.924886,14.084405],[120.929118,14.082368],[120.929289,14.079298],[121.018552,14.166685]]]}},{"type":"Feature","properties":{"name":"Tanza","fold":"tanza"},"geometry":{"type":"Polygon","coordinates":[[[120.864267,14.310934],[120.857956,14.309679],[120.854427,14.312506],[120.848489,14.310336],[120.847293,14.308347],[120.841761,14.308699],[120.837288,14.303907],[120.837925,14.286576],[120.833202,14.282792],[120.826972,14.283776],[120.826966,14.281412],[120.822433,14.282306],[120.816645,14.287167],[120.817277,14.288857],[120.816268,14.290424],[120.814926,14.290014],[120.814819,14.29494],[120.812301,14.298502],[120.814874,14.301982],[120.816616,14.301707],[120.823062,14.317601],[120.820417,14.320584],[120.820587,14.322693],[120.818555,14.324276],[120.817554,14.327769],[120.812958,14.329623],[120.811974,14.334234],[120.806501,14.337244],[120.802798,14.34214],[120.796395,14.346351],[120.792652,14.345152],[120.788308,14.346512],[120.788092,14.344612],[120.781698,14.346394],[120.708768,14.406031],[120.71475,14.445266],[120.733112,14.469437],[120.844873,14.411028],[120.84787,14.406685],[120.853335,14.404883],[120.855117,14.402025],[120.857404,14.402552],[120.85935,14.401246],[120.861691,14.397363],[120.861803,14.392917],[120.866387,14.387101],[120.869446,14.386876],[120.874519,14.383479],[120.875411,14.379531],[120.874441,14.377209],[120.875713,14.375272],[120.874204,14.372334],[120.875899,14.36933],[120.87448,14.362914],[120.872654,14.362323],[120.873587,14.36021],[120.871965,14.351471],[120.868632,14.349507],[120.873198,14.341231],[120.873792,14.336804],[120.871959,14.330892],[120.869208,14.327449],[120.86818,14.321625],[120.866574,14.320297],[120.866227,14.313556],[120.864267,14.310934]]]}},{"type":"Feature","properties":{"name":"Ternate","fold":"ternate"},"geometry":{"type":"Polygon","coordinates":[[[120.728406,14.309571],[120.683423,14.335738],[120.67669,14.346666],[120.588022,14.328091],[120.569992,14.317532],[120.622248,14.289434],[120.6198,14.272567],[120.624396,14.262139],[120.627764,14.260755],[120.629629,14.256412],[120.632539,14.254177],[120.633913,14.248762],[120.640463,14.241127],[120.645641,14.228667],[120.649341,14.227464],[120.661488,14.232533],[120.666216,14.237798],[120.718172,14.279802],[120.724894,14.278923],[120.728137,14.276087],[120.72987,14.279893],[120.743553,14.296542],[120.734373,14.305853],[120.728406,14.309571]]]}},{"type":"Feature","properties":{"name":"Trece Martires City","fold":"trece martires"},"geometry":{"type":"Polygon","coordinates":[[[120.864267,14.310934],[120.857956,14.309679],[120.854427,14.312506],[120.848489,14.310336],[120.847293,14.308347],[120.841761,14.308699],[120.837288,14.303907],[120.837925,14.286576],[120.834067,14.283054],[120.826972,14.283776],[120.826966,14.281412],[120.822933,14.28211],[120.822977,14.280842],[120.825043,14.27709],[120.83032,14.274897],[120.837445,14.267669],[120.84719,14.263269],[120.847298,14.260161],[120.849018,14.260074],[120.849423,14.257902],[120.851945,14.256885],[120.852119,14.254689],[120.854404,14.254667],[120.854325,14.253308],[120.861056,14.247902],[120.863946,14.242758],[120.864052,14.239865],[120.870143,14.241577],[120.871917,14.244147],[120.880864,14.243747],[120.883607,14.239193],[120.883062,14.235917],[120.889443,14.227679],[120.893249,14.22715],[120.896655,14.218169],[120.899164,14.218928],[120.901474,14.220433],[120.897852,14.225039],[120.89724,14.229003],[120.891302,14.235722],[120.889218,14.246798],[120.899755,14.247134],[120.898373,14.252677],[120.899706,14.255946],[120.896109,14.265648],[120.89595,14.269734],[120.901052,14.274487],[120.896613,14.284444],[120.896678,14.287078],[120.892212,14.290352],[120.895048,14.297883],[120.893747,14.302719],[120.89102,14.306009],[120.890582,14.311549],[120.882773,14.310405],[120.881311,14.311852],[120.879898,14.310849],[120.878405,14.31259],[120.874245,14.309735],[120.867855,14.310204],[120.866197,14.313497],[120.864267,14.310934]]]}}]}